STARLINK-1067           
1 44771U 19074BL  26004.33336806  .00092032  00000+0  20526-2 0  9990
2 44771  53.0555 152.8175 0000779  86.3816 282.8090 15.42825644  5805
STARLINK-1068           
1 44772U 19074BM  26004.32431204  .00093099  00000+0  20795-2 0  9990
2 44772  53.0537 130.7664 0003596 350.0338  10.0595 15.42772440338832
STARLINK-1112           
1 44925U 20001M   26004.33336806  .00182032  00000+0  13376-2 0  9998
2 44925  53.0442 207.5952 0008201 117.9386 193.3781 15.72003645  5909
STARLINK-1114           
1 44927U 20001P   26004.33336806  .01930566  00000+0  79204-1 0  9995
2 44927  53.0543 274.9992 0001345 111.6518  60.4078 15.20359521  5740
STARLINK-1123           
1 44930U 20001S   26004.03515008 -.00000111  00000+0  11441-4 0  9995
2 44930  53.0548 276.8642 0001466 100.6499 259.4655 15.06393084330100
STARLINK-1144           
1 44933U 20001V   26004.33336806  .00312585  00000+0  13499-2 0  9991
2 44933  53.0359 180.3782 0002080 276.5322 302.0746 15.83567034  5982
STARLINK-1094           
1 44941U 20001AD  26004.11439259  .00004412  00000+0  31490-3 0  9991
2 44941  53.0542 256.5103 0000975  90.7685 269.3415 15.06397476330397
STARLINK-1122           
1 44949U 20001AM  26004.13651946 -.00000973  00000+0 -46433-4 0  9994
2 44949  53.0545 256.4079 0001294  92.4320 267.6817 15.06390656330399
STARLINK-1080           
1 44961U 20001AZ  26004.33336806  .00107807  00000+0  28092-2 0  9996
2 44961  53.0541 233.5542 0000993  96.8134 196.1413 15.38028923  5630
STARLINK-1090           
1 44968U 20001BG  26004.00565610 -.00000532  00000+0 -16839-4 0  9991
2 44968  53.0544 236.9963 0001378  94.6179 265.4967 15.06400169330666
STARLINK-1132           
1 45044U 20006A   26004.33336806  .00096161  00000+0  58601-2 0  9993
2 45044  53.0623 195.5160 0001809 102.9554 101.8628 15.09568127  5543
STARLINK-1131           
1 45047U 20006D   26004.00757782  .00002812  00000+0  20764-3 0  9990
2 45047  53.0544 217.5302 0001613  91.3815 268.7359 15.06396622326709
STARLINK-1134           
1 45048U 20006E   26003.90263075  .00069078  00000+0  20082-2 0  9995
2 45048  53.0354 184.4173 0004732  83.5225 276.6315 15.34836003327164
STARLINK-1156           
1 45054U 20006L   26004.30975475 -.00000190  00000+0  61627-5 0  9995
2 45054  53.0558 215.6294 0001357  94.2026 265.9118 15.06384601326753
STARLINK-1159           
1 45057U 20006P   26004.33336806  .00219213  00000+0  24783-2 0  9996
2 45057  53.0508 193.6336 0006474 144.2109 231.8101 15.61208211  5948
STARLINK-1166           
1 45060U 20006S   26004.33336806  .00042347  00000+0  26566-2 0  9993
2 45060  53.0536 215.5137 0001160  78.4025 275.6380 15.08922902  5731
