[{"OBJECT_NAME":"STARLINK-1067","OBJECT_ID":"2019-074BL","EPOCH":"2026-01-04T08:00:03.000384","MEAN_MOTION":15.42825644,"ECCENTRICITY":7.791e-5,"INCLINATION":53.0555,"RA_OF_ASC_NODE":152.8175,"ARG_OF_PERICENTER":86.3816,"MEAN_ANOMALY":282.809,"EPHEMERIS_TYPE":0,"CLASSIFICATION_TYPE":"U","NORAD_CAT_ID":44771,"ELEMENT_SET_NO":999,"REV_AT_EPOCH":580,"BSTAR":0.0020526185,"MEAN_MOTION_DOT":0.00092032,"MEAN_MOTION_DDOT":0},{"OBJECT_NAME":"STARLINK-1068","OBJECT_ID":"2019-074BM","EPOCH":"2026-01-04T07:47:00.560256","MEAN_MOTION":15.4277244,"ECCENTRICITY":0.00035964,"INCLINATION":53.0537,"RA_OF_ASC_NODE":130.7664,"ARG_OF_PERICENTER":350.0338,"MEAN_ANOMALY":10.0595,"EPHEMERIS_TYPE":0,"CLASSIFICATION_TYPE":"U","NORAD_CAT_ID":44772,"ELEMENT_SET_NO":999,"REV_AT_EPOCH":33883,"BSTAR":0.0020794545,"MEAN_MOTION_DOT":0.00093099,"MEAN_MOTION_DDOT":0},{"OBJECT_NAME":"STARLINK-1112","OBJECT_ID":"2020-001M","EPOCH":"2026-01-04T08:00:03.000384","MEAN_MOTION":15.72003645,"ECCENTRICITY":0.00082015,"INCLINATION":53.0442,"RA_OF_ASC_NODE":207.5952,"ARG_OF_PERICENTER":117.9386,"MEAN_ANOMALY":193.3781,"EPHEMERIS_TYPE":0,"CLASSIFICATION_TYPE":"U","NORAD_CAT_ID":44925,"ELEMENT_SET_NO":999,"REV_AT_EPOCH":590,"BSTAR":0.0013375914,"MEAN_MOTION_DOT":0.00182032,"MEAN_MOTION_DDOT":0},{"OBJECT_NAME":"STARLINK-1114","OBJECT_ID":"2020-001P","EPOCH":"2026-01-04T08:00:03.000384","MEAN_MOTION":15.20359521,"ECCENTRICITY":0.00013452,"INCLINATION":53.0543,"RA_OF_ASC_NODE":274.9992,"ARG_OF_PERICENTER":111.6518,"MEAN_ANOMALY":60.4078,"EPHEMERIS_TYPE":0,"CLASSIFICATION_TYPE":"U","NORAD_CAT_ID":44927,"ELEMENT_SET_NO":999,"REV_AT_EPOCH":574,"BSTAR":0.079204209,"MEAN_MOTION_DOT":0.01930566,"MEAN_MOTION_DDOT":0},{"OBJECT_NAME":"STARLINK-1123","OBJECT_ID":"2020-001S","EPOCH":"2026-01-04T00:50:36.966912","MEAN_MOTION":15.06393084,"ECCENTRICITY":0.00014669,"INCLINATION":53.0548,"RA_OF_ASC_NODE":276.8642,"ARG_OF_PERICENTER":100.6499,"MEAN_ANOMALY":259.4655,"EPHEMERIS_TYPE":0,"CLASSIFICATION_TYPE":"U","NORAD_CAT_ID":44930,"ELEMENT_SET_NO":999,"REV_AT_EPOCH":33010,"BSTAR":1.1440718e-5,"MEAN_MOTION_DOT":-1.11e-6,"MEAN_MOTION_DDOT":0},{"OBJECT_NAME":"STARLINK-1144","OBJECT_ID":"2020-001V","EPOCH":"2026-01-04T08:00:03.000384","MEAN_MOTION":15.83567034,"ECCENTRICITY":0.00020808,"INCLINATION":53.0359,"RA_OF_ASC_NODE":180.3782,"ARG_OF_PERICENTER":276.5322,"MEAN_ANOMALY":302.0746,"EPHEMERIS_TYPE":0,"CLASSIFICATION_TYPE":"U","NORAD_CAT_ID":44933,"ELEMENT_SET_NO":999,"REV_AT_EPOCH":598,"BSTAR":0.0013499018,"MEAN_MOTION_DOT":0.00312585,"MEAN_MOTION_DDOT":0},{"OBJECT_NAME":"STARLINK-1094","OBJECT_ID":"2020-001AD","EPOCH":"2026-01-04T02:44:43.519776","MEAN_MOTION":15.06397476,"ECCENTRICITY":9.751e-5,"INCLINATION":53.0542,"RA_OF_ASC_NODE":256.5103,"ARG_OF_PERICENTER":90.7685,"MEAN_ANOMALY":269.3415,"EPHEMERIS_TYPE":0,"CLASSIFICATION_TYPE":"U","NORAD_CAT_ID":44941,"ELEMENT_SET_NO":999,"REV_AT_EPOCH":33039,"BSTAR":0.00031489999,"MEAN_MOTION_DOT":4.412e-5,"MEAN_MOTION_DDOT":0},{"OBJECT_NAME":"STARLINK-1122","OBJECT_ID":"2020-001AM","EPOCH":"2026-01-04T03:16:35.281344","MEAN_MOTION":15.06390656,"ECCENTRICITY":0.0001294,"INCLINATION":53.0545,"RA_OF_ASC_NODE":256.4079,"ARG_OF_PERICENTER":92.432,"MEAN_ANOMALY":267.6817,"EPHEMERIS_TYPE":0,"CLASSIFICATION_TYPE":"U","NORAD_CAT_ID":44949,"ELEMENT_SET_NO":999,"REV_AT_EPOCH":33039,"BSTAR":-4.6433379e-5,"MEAN_MOTION_DOT":-9.73e-6,"MEAN_MOTION_DDOT":0},{"OBJECT_NAME":"STARLINK-1080","OBJECT_ID":"2020-001AZ","EPOCH":"2026-01-04T08:00:03.000384","MEAN_MOTION":15.38028923,"ECCENTRICITY":9.938e-5,"INCLINATION":53.0541,"RA_OF_ASC_NODE":233.5542,"ARG_OF_PERICENTER":96.8134,"MEAN_ANOMALY":196.1413,"EPHEMERIS_TYPE":0,"CLASSIFICATION_TYPE":"U","NORAD_CAT_ID":44961,"ELEMENT_SET_NO":999,"REV_AT_EPOCH":563,"BSTAR":0.0028091805,"MEAN_MOTION_DOT":0.00107807,"MEAN_MOTION_DDOT":0},{"OBJECT_NAME":"STARLINK-1090","OBJECT_ID":"2020-001BG","EPOCH":"2026-01-04T00:08:08.687040","MEAN_MOTION":15.06400169,"ECCENTRICITY":0.00013786,"INCLINATION":53.0544,"RA_OF_ASC_NODE":236.9963,"ARG_OF_PERICENTER":94.6179,"MEAN_ANOMALY":265.4967,"EPHEMERIS_TYPE":0,"CLASSIFICATION_TYPE":"U","NORAD_CAT_ID":44968,"ELEMENT_SET_NO":999,"REV_AT_EPOCH":33066,"BSTAR":-1.6838729e-5,"MEAN_MOTION_DOT":-5.32e-6,"MEAN_MOTION_DDOT":0},{"OBJECT_NAME":"STARLINK-1132","OBJECT_ID":"2020-006A","EPOCH":"2026-01-04T08:00:03.000384","MEAN_MOTION":15.09568127,"ECCENTRICITY":0.00018092,"INCLINATION":53.0623,"RA_OF_ASC_NODE":195.516,"ARG_OF_PERICENTER":102.9554,"MEAN_ANOMALY":101.8628,"EPHEMERIS_TYPE":0,"CLASSIFICATION_TYPE":"U","NORAD_CAT_ID":45044,"ELEMENT_SET_NO":999,"REV_AT_EPOCH":554,"BSTAR":0.0058600671,"MEAN_MOTION_DOT":0.00096161,"MEAN_MOTION_DDOT":0},{"OBJECT_NAME":"STARLINK-1131","OBJECT_ID":"2020-006D","EPOCH":"2026-01-04T00:10:54.723648","MEAN_MOTION":15.06396622,"ECCENTRICITY":0.00016133,"INCLINATION":53.0544,"RA_OF_ASC_NODE":217.5302,"ARG_OF_PERICENTER":91.3815,"MEAN_ANOMALY":268.7359,"EPHEMERIS_TYPE":0,"CLASSIFICATION_TYPE":"U","NORAD_CAT_ID":45047,"ELEMENT_SET_NO":999,"REV_AT_EPOCH":32670,"BSTAR":0.00020763721,"MEAN_MOTION_DOT":2.812e-5,"MEAN_MOTION_DDOT":0},{"OBJECT_NAME":"STARLINK-1134","OBJECT_ID":"2020-006E","EPOCH":"2026-01-03T21:39:47.296800","MEAN_MOTION":15.34836003,"ECCENTRICITY":0.0004732,"INCLINATION":53.0354,"RA_OF_ASC_NODE":184.4173,"ARG_OF_PERICENTER":83.5225,"MEAN_ANOMALY":276.6315,"EPHEMERIS_TYPE":0,"CLASSIFICATION_TYPE":"U","NORAD_CAT_ID":45048,"ELEMENT_SET_NO":999,"REV_AT_EPOCH":32716,"BSTAR":0.0020082,"MEAN_MOTION_DOT":0.00069078,"MEAN_MOTION_DDOT":0},{"OBJECT_NAME":"STARLINK-1156","OBJECT_ID":"2020-006L","EPOCH":"2026-01-04T07:26:02.810400","MEAN_MOTION":15.06384601,"ECCENTRICITY":0.00013577,"INCLINATION":53.0558,"RA_OF_ASC_NODE":215.6294,"ARG_OF_PERICENTER":94.2026,"MEAN_ANOMALY":265.9118,"EPHEMERIS_TYPE":0,"CLASSIFICATION_TYPE":"U","NORAD_CAT_ID":45054,"ELEMENT_SET_NO":999,"REV_AT_EPOCH":32675,"BSTAR":6.162734e-6,"MEAN_MOTION_DOT":-1.9e-6,"MEAN_MOTION_DDOT":0},{"OBJECT_NAME":"STARLINK-1159","OBJECT_ID":"2020-006P","EPOCH":"2026-01-04T08:00:03.000384","MEAN_MOTION":15.61208211,"ECCENTRICITY":0.00064749,"INCLINATION":53.0508,"RA_OF_ASC_NODE":193.6336,"ARG_OF_PERICENTER":144.2109,"MEAN_ANOMALY":231.8101,"EPHEMERIS_TYPE":0,"CLASSIFICATION_TYPE":"U","NORAD_CAT_ID":45057,"ELEMENT_SET_NO":999,"REV_AT_EPOCH":594,"BSTAR":0.0024783378,"MEAN_MOTION_DOT":0.00219213,"MEAN_MOTION_DDOT":0},{"OBJECT_NAME":"STARLINK-1166","OBJECT_ID":"2020-006S","EPOCH":"2026-01-04T08:00:03.000384","MEAN_MOTION":15.08922902,"ECCENTRICITY":0.00011602,"INCLINATION":53.0536,"RA_OF_ASC_NODE":215.5137,"ARG_OF_PERICENTER":78.4025,"MEAN_ANOMALY":275.638,"EPHEMERIS_TYPE":0,"CLASSIFICATION_TYPE":"U","NORAD_CAT_ID":45060,"ELEMENT_SET_NO":999,"REV_AT_EPOCH":573,"BSTAR":0.0026566466,"MEAN_MOTION_DOT":0.00042347,"MEAN_MOTION_DDOT":0}]
